[{"CCSDS_OMM_VERS":"2.0","COMMENT":"GENERATED VIA SPACE-TRACK.ORG API","CREATION_DATE":"2022-09-24T02:34:16","ORIGINATOR":"18 SPCS","OBJECT_NAME":"STARLINK-1098","OBJECT_ID":"2020-001D","CENTER_NAME":"EARTH","REF_FRAME":"TEME","TIME_SYSTEM":"UTC","MEAN_ELEMENT_THEORY":"SGP4","EPOCH":"2022-09-23T16:10:00.827616","MEAN_MOTION":"15.06394446","ECCENTRICITY":"0.00014980","INCLINATION":"53.0534","RA_OF_ASC_NODE":"256.5103","ARG_OF_PERICENTER":"69.1801","MEAN_ANOMALY":"290.9348","EPHEMERIS_TYPE":"0","CLASSIFICATION_TYPE":"U","NORAD_CAT_ID":"44917","ELEMENT_SET_NO":"999","REV_AT_EPOCH":"14948","BSTAR":"0.00005249100000","MEAN_MOTION_DOT":"0.00000500","MEAN_MOTION_DDOT":"0.0000000000000","SEMIMAJOR_AXIS":"6925.366","PERIOD":"95.592","APOAPSIS":"548.268","PERIAPSIS":"546.193","OBJECT_TYPE":"PAYLOAD","RCS_SIZE":"LARGE","COUNTRY_CODE":"US","LAUNCH_DATE":"2020-01-07","SITE":"AFETR","DECAY_DATE":null,"FILE":"3581681","GP_ID":"213332150","TLE_LINE0":"0 STARLINK-1098","TLE_LINE1":"1 44917U 20001D   22266.67362069  .00000500  00000-0  52491-4 0  9995","TLE_LINE2":"2 44917  53.0534 256.5103 0001498  69.1801 290.9348 15.06394446149489"},{"CCSDS_OMM_VERS":"2.0","COMMENT":"GENERATED VIA SPACE-TRACK.ORG API","CREATION_DATE":"2022-09-23T22:56:13","ORIGINATOR":"18 SPCS","OBJECT_NAME":"STARLINK-1098","OBJECT_ID":"2020-001D","CENTER_NAME":"EARTH","REF_FRAME":"TEME","TIME_SYSTEM":"UTC","MEAN_ELEMENT_THEORY":"SGP4","EPOCH":"2022-09-23T16:10:00.827616","MEAN_MOTION":"15.06394446","ECCENTRICITY":"0.00014980","INCLINATION":"53.0534","RA_OF_ASC_NODE":"256.5103","ARG_OF_PERICENTER":"69.1801","MEAN_ANOMALY":"290.9348","EPHEMERIS_TYPE":"0","CLASSIFICATION_TYPE":"U","NORAD_CAT_ID":"44917","ELEMENT_SET_NO":"999","REV_AT_EPOCH":"14948","BSTAR":"0.00005249100000","MEAN_MOTION_DOT":"0.00000500","MEAN_MOTION_DDOT":"0.0000000000000","SEMIMAJOR_AXIS":"6925.366","PERIOD":"95.592","APOAPSIS":"548.268","PERIAPSIS":"546.193","OBJECT_TYPE":"PAYLOAD","RCS_SIZE":"LARGE","COUNTRY_CODE":"US","LAUNCH_DATE":"2020-01-07","SITE":"AFETR","DECAY_DATE":null,"FILE":"3581593","GP_ID":"213310390","TLE_LINE0":"0 STARLINK-1098","TLE_LINE1":"1 44917U 20001D   22266.67362069  .00000500  00000-0  52491-4 0  9995","TLE_LINE2":"2 44917  53.0534 256.5103 0001498  69.1801 290.9348 15.06394446149489"},{"CCSDS_OMM_VERS":"2.0","COMMENT":"GENERATED VIA SPACE-TRACK.ORG API","CREATION_DATE":"2022-09-24T17:24:49","ORIGINATOR":"18 SPCS","OBJECT_NAME":"STARLINK-1098","OBJECT_ID":"2020-001D","CENTER_NAME":"EARTH","REF_FRAME":"TEME","TIME_SYSTEM":"UTC","MEAN_ELEMENT_THEORY":"SGP4","EPOCH":"2022-09-24T06:29:51.878976","MEAN_MOTION":"15.06401106","ECCENTRICITY":"0.00015720","INCLINATION":"53.0542","RA_OF_ASC_NODE":"253.8317","ARG_OF_PERICENTER":"75.0954","MEAN_ANOMALY":"285.0209","EPHEMERIS_TYPE":"0","CLASSIFICATION_TYPE":"U","NORAD_CAT_ID":"44917","ELEMENT_SET_NO":"999","REV_AT_EPOCH":"14957","BSTAR":"0.00010453000000","MEAN_MOTION_DOT":"0.00001276","MEAN_MOTION_DDOT":"0.0000000000000","SEMIMAJOR_AXIS":"6925.345","PERIOD":"95.592","APOAPSIS":"548.299","PERIAPSIS":"546.122","OBJECT_TYPE":"PAYLOAD","RCS_SIZE":"LARGE","COUNTRY_CODE":"US","LAUNCH_DATE":"2020-01-07","SITE":"AFETR","DECAY_DATE":null,"FILE":"3582188","GP_ID":"213368287","TLE_LINE0":"0 STARLINK-1098","TLE_LINE1":"1 44917U 20001D   22267.27073934  .00001276  00000-0  10453-3 0  9994","TLE_LINE2":"2 44917  53.0542 253.8317 0001572  75.0954 285.0209 15.06401106149576"},{"CCSDS_OMM_VERS":"2.0","COMMENT":"GENERATED VIA SPACE-TRACK.ORG API","CREATION_DATE":"2022-09-25T03:43:23","ORIGINATOR":"18 SPCS","OBJECT_NAME":"STARLINK-1098","OBJECT_ID":"2020-001D","CENTER_NAME":"EARTH","REF_FRAME":"TEME","TIME_SYSTEM":"UTC","MEAN_ELEMENT_THEORY":"SGP4","EPOCH":"2022-09-24T16:03:06.234624","MEAN_MOTION":"15.06413182","ECCENTRICITY":"0.00016710","INCLINATION":"53.0545","RA_OF_ASC_NODE":"252.0451","ARG_OF_PERICENTER":"61.3887","MEAN_ANOMALY":"298.7270","EPHEMERIS_TYPE":"0","CLASSIFICATION_TYPE":"U","NORAD_CAT_ID":"44917","ELEMENT_SET_NO":"999","REV_AT_EPOCH":"14963","BSTAR":"-0.00013053000000","MEAN_MOTION_DOT":"-0.00002226","MEAN_MOTION_DDOT":"0.0000000000000","SEMIMAJOR_AXIS":"6925.308","PERIOD":"95.591","APOAPSIS":"548.330","PERIAPSIS":"546.016","OBJECT_TYPE":"PAYLOAD","RCS_SIZE":"LARGE","COUNTRY_CODE":"US","LAUNCH_DATE":"2020-01-07","SITE":"AFETR","DECAY_DATE":null,"FILE":"3582616","GP_ID":"213401192","TLE_LINE0":"0 STARLINK-1098","TLE_LINE1":"1 44917U 20001D   22267.66882216 -.00002226  00000-0 -13053-3 0  9995","TLE_LINE2":"2 44917  53.0545 252.0451 0001671  61.3887 298.7270 15.06413182149635"},{"CCSDS_OMM_VERS":"2.0","COMMENT":"GENERATED VIA SPACE-TRACK.ORG API","CREATION_DATE":"2022-09-24T23:16:13","ORIGINATOR":"18 SPCS","OBJECT_NAME":"STARLINK-1098","OBJECT_ID":"2020-001D","CENTER_NAME":"EARTH","REF_FRAME":"TEME","TIME_SYSTEM":"UTC","MEAN_ELEMENT_THEORY":"SGP4","EPOCH":"2022-09-24T16:03:06.234624","MEAN_MOTION":"15.06413182","ECCENTRICITY":"0.00016710","INCLINATION":"53.0545","RA_OF_ASC_NODE":"252.0451","ARG_OF_PERICENTER":"61.3887","MEAN_ANOMALY":"298.7270","EPHEMERIS_TYPE":"0","CLASSIFICATION_TYPE":"U","NORAD_CAT_ID":"44917","ELEMENT_SET_NO":"999","REV_AT_EPOCH":"14963","BSTAR":"-0.00013053000000","MEAN_MOTION_DOT":"-0.00002226","MEAN_MOTION_DDOT":"0.0000000000000","SEMIMAJOR_AXIS":"6925.308","PERIOD":"95.591","APOAPSIS":"548.330","PERIAPSIS":"546.016","OBJECT_TYPE":"PAYLOAD","RCS_SIZE":"LARGE","COUNTRY_CODE":"US","LAUNCH_DATE":"2020-01-07","SITE":"AFETR","DECAY_DATE":null,"FILE":"3582520","GP_ID":"213380850","TLE_LINE0":"0 STARLINK-1098","TLE_LINE1":"1 44917U 20001D   22267.66882216 -.00002226  00000-0 -13053-3 0  9995","TLE_LINE2":"2 44917  53.0545 252.0451 0001671  61.3887 298.7270 15.06413182149635"},{"CCSDS_OMM_VERS":"2.0","COMMENT":"GENERATED VIA SPACE-TRACK.ORG API","CREATION_DATE":"2022-09-25T07:46:12","ORIGINATOR":"18 SPCS","OBJECT_NAME":"STARLINK-1098","OBJECT_ID":"2020-001D","CENTER_NAME":"EARTH","REF_FRAME":"TEME","TIME_SYSTEM":"UTC","MEAN_ELEMENT_THEORY":"SGP4","EPOCH":"2022-09-25T04:47:26.151936","MEAN_MOTION":"15.06390418","ECCENTRICITY":"0.00018250","INCLINATION":"53.0554","RA_OF_ASC_NODE":"249.6588","ARG_OF_PERICENTER":"60.3415","MEAN_ANOMALY":"299.7755","EPHEMERIS_TYPE":"0","CLASSIFICATION_TYPE":"U","NORAD_CAT_ID":"44917","ELEMENT_SET_NO":"999","REV_AT_EPOCH":"14971","BSTAR":"-0.00001249700000","MEAN_MOTION_DOT":"-0.00000468","MEAN_MOTION_DDOT":"0.0000000000000","SEMIMAJOR_AXIS":"6925.378","PERIOD":"95.593","APOAPSIS":"548.507","PERIAPSIS":"545.979","OBJECT_TYPE":"PAYLOAD","RCS_SIZE":"LARGE","COUNTRY_CODE":"US","LAUNCH_DATE":"2020-01-07","SITE":"AFETR","DECAY_DATE":null,"FILE":"3582932","GP_ID":"213414473","TLE_LINE0":"0 STARLINK-1098","TLE_LINE1":"1 44917U 20001D   22268.19960824 -.00000468  00000-0 -12497-4 0  9994","TLE_LINE2":"2 44917  53.0554 249.6588 0001825  60.3415 299.7755 15.06390418149719"},{"CCSDS_OMM_VERS":"2.0","COMMENT":"GENERATED VIA SPACE-TRACK.ORG API","CREATION_DATE":"2022-09-25T17:39:09","ORIGINATOR":"18 SPCS","OBJECT_NAME":"STARLINK-1098","OBJECT_ID":"2020-001D","CENTER_NAME":"EARTH","REF_FRAME":"TEME","TIME_SYSTEM":"UTC","MEAN_ELEMENT_THEORY":"SGP4","EPOCH":"2022-09-25T06:22:58.639008","MEAN_MOTION":"15.06387767","ECCENTRICITY":"0.00015640","INCLINATION":"53.0546","RA_OF_ASC_NODE":"249.3638","ARG_OF_PERICENTER":"80.6472","MEAN_ANOMALY":"279.4694","EPHEMERIS_TYPE":"0","CLASSIFICATION_TYPE":"U","NORAD_CAT_ID":"44917","ELEMENT_SET_NO":"999","REV_AT_EPOCH":"14972","BSTAR":"-0.00002204400000","MEAN_MOTION_DOT":"-0.00000610","MEAN_MOTION_DDOT":"0.0000000000000","SEMIMAJOR_AXIS":"6925.386","PERIOD":"95.593","APOAPSIS":"548.334","PERIAPSIS":"546.168","OBJECT_TYPE":"PAYLOAD","RCS_SIZE":"LARGE","COUNTRY_CODE":"US","LAUNCH_DATE":"2020-01-07","SITE":"AFETR","DECAY_DATE":null,"FILE":"3583351","GP_ID":"213442092","TLE_LINE0":"0 STARLINK-1098","TLE_LINE1":"1 44917U 20001D   22268.26595647 -.00000610  00000-0 -22044-4 0  9997","TLE_LINE2":"2 44917  53.0546 249.3638 0001564  80.6472 279.4694 15.06387767149722"},{"CCSDS_OMM_VERS":"2.0","COMMENT":"GENERATED VIA SPACE-TRACK.ORG API","CREATION_DATE":"2022-09-26T20:43:32","ORIGINATOR":"18 SPCS","OBJECT_NAME":"STARLINK-1098","OBJECT_ID":"2020-001D","CENTER_NAME":"EARTH","REF_FRAME":"TEME","TIME_SYSTEM":"UTC","MEAN_ELEMENT_THEORY":"SGP4","EPOCH":"2022-09-26T06:16:03.529344","MEAN_MOTION":"15.06400944","ECCENTRICITY":"0.00016250","INCLINATION":"53.0543","RA_OF_ASC_NODE":"244.8963","ARG_OF_PERICENTER":"67.5784","MEAN_ANOMALY":"292.5377","EPHEMERIS_TYPE":"0","CLASSIFICATION_TYPE":"U","NORAD_CAT_ID":"44917","ELEMENT_SET_NO":"999","REV_AT_EPOCH":"14987","BSTAR":"0.00009850100000","MEAN_MOTION_DOT":"0.00001186","MEAN_MOTION_DDOT":"0.0000000000000","SEMIMAJOR_AXIS":"6925.346","PERIOD":"95.592","APOAPSIS":"548.336","PERIAPSIS":"546.085","OBJECT_TYPE":"PAYLOAD","RCS_SIZE":"LARGE","COUNTRY_CODE":"US","LAUNCH_DATE":"2020-01-07","SITE":"AFETR","DECAY_DATE":null,"FILE":"3584345","GP_ID":"213540506","TLE_LINE0":"0 STARLINK-1098","TLE_LINE1":"1 44917U 20001D   22269.26115196  .00001186  00000-0  98501-4 0  9993","TLE_LINE2":"2 44917  53.0543 244.8963 0001625  67.5784 292.5377 15.06400944149871"}]